OBJECT_NAME,OBJECT_ID,EPOCH,MEAN_MOTION,ECCENTRICITY,INCLINATION,RA_OF_ASC_NODE,ARG_OF_PERICENTER,MEAN_ANOMALY,EPHEMERIS_TYPE,CLASSIFICATION_TYPE,NORAD_CAT_ID,ELEMENT_SET_NO,REV_AT_EPOCH,BSTAR,MEAN_MOTION_DOT,MEAN_MOTION_DDOT
INTELSAT 23 (IS-23),2012-057A,2026-07-22T21:58:03.374112,1.00269443,.00002572,0.0247,295.6919,248.1772,33.2865,0,U,38867,999,5031,0,-.281E-5,0
FM-6,2013-058A,2026-07-22T17:36:37.139616,1.00270112,.00013513,0.0082,24.8608,154.4914,268.9071,0,U,39360,999,4643,0,-.11E-6,0
INTELSAT 30 (IS-30),2014-062A,2026-07-22T19:25:19.380576,1.00270580,.00016081,0.0176,56.6576,343.5548,96.6149,0,U,40271,999,715,0,-.147E-5,0
DIRECTV 14,2014-078B,2026-07-22T10:51:00.353088,1.00273271,.00006579,0.0107,49.5652,348.8605,325.2826,0,U,40333,999,4239,0,-.122E-5,0
DIRECTV 15,2015-026A,2026-07-22T15:57:58.264416,1.00275065,.00006762,0.0219,79.6045,297.5354,59.8789,0,U,40663,999,4081,0,-.99E-6,0
SKY MEXICO-1,2015-026B,2026-07-22T19:30:03.926880,1.00270516,.00027353,0.0144,318.7995,175.9004,19.5625,0,U,40664,999,4081,0,-.23E-5,0
INTELSAT 34 (IS-34),2015-039A,2026-07-22T21:19:23.022624,1.00270606,.00006065,0.0087,5.7879,35.3203,163.8716,0,U,40874,999,3999,0,-.281E-5,0
INTELSAT 31 (IS-31),2016-035A,2026-07-22T19:25:19.380576,1.00270984,.00008932,0.0087,302.1030,11.2762,183.4480,0,U,41581,999,3704,0,-.147E-5,0
INTELSAT 36 (IS-36),2016-053A,2026-07-22T21:54:48.118752,1.00272243,.00024079,0.0112,36.7806,314.9378,346.1265,0,U,41747,999,3631,0,-.2E-6,0
INTELSAT 32E (IS-32E),2017-007B,2026-07-22T21:22:52.686912,1.00269762,.00005089,0.0143,40.4644,13.6039,164.0859,0,U,41945,999,3458,0,-.265E-5,0
INTELSAT 35E (IS-35E),2017-041A,2026-07-22T21:25:22.448352,1.00271634,.00021232,0.0188,60.7340,57.7262,109.0163,0,U,42818,999,3317,0,-.234E-5,0
INTELSAT 37E (IS-37E),2017-059A,2026-07-22T19:47:27.688128,1.00272530,.0002927,0.0148,74.5801,50.5803,94.2714,0,U,42950,999,3242,0,-.136E-5,0
AZERSPACE 2 (IS-38),2018-074A,2026-07-22T21:48:03.765024,1.00270237,.00013933,0.0248,56.6523,56.6906,199.4424,0,U,43632,999,2880,0,0,0
HORIZONS-3E,2018-074B,2026-07-22T20:40:47.190720,1.00272442,.00004087,0.0323,238.8554,76.6575,104.2718,0,U,43633,999,2869,0,-.26E-6,0
AT&T T-16,2019-034A,2026-07-22T15:58:28.215840,1.00269612,.00008613,0.0154,77.2056,292.3533,69.5986,0,U,44333,999,2598,0,-.111E-5,0
INTELSAT 39 (IS-39),2019-049B,2026-07-22T22:23:31.214688,1.00270489,.00008968,0.0226,51.1445,315.2336,332.1241,0,U,44476,999,2548,0,0,0
GALAXY 30 (G-30),2020-056C,2026-07-22T17:42:38.619072,1.00271378,.00022441,0.0146,67.1236,50.6582,323.3470,0,U,46114,999,2164,0,.41E-6,0
GALAXY 33 (G-33),2022-128A,2026-07-22T17:32:00.083328,1.00270773,.00020038,0.0115,1.1830,111.6797,317.6071,0,U,54026,999,1409,0,.83E-6,0
GALAXY 34 (G-34),2022-128B,2026-07-22T15:50:28.981824,1.00275714,.00018274,0.0093,44.2129,79.3410,285.4741,0,U,54027,999,1426,0,.62E-6,0
GALAXY 31 (G-31),2022-153A,2026-07-22T15:52:43.766688,1.00272425,.00014308,0.0150,65.9990,59.0264,292.5687,0,U,54243,999,748,0,0,0
GALAXY 32 (G-32),2022-153B,2026-07-22T14:18:39.487968,1.00272075,.00015011,0.0072,38.7271,18.3215,6.9584,0,U,54244,999,1349,0,-.171E-5,0
GALAXY 35 (G-35),2022-170A,2026-07-22T19:26:04.310304,1.00271596,.00020989,0.0016,347.8181,131.7232,19.4166,0,U,54741,999,1325,0,-.158E-5,0
GALAXY 36 (G-36),2022-170B,2026-07-22T19:27:04.214016,1.00272133,.00027576,0.0218,125.7276,335.2189,42.3700,0,U,54742,999,1313,0,-.181E-5,0
GALAXY 37 (G-37),2023-112A,2026-07-22T17:58:38.743392,1.00273320,.00021346,0.0162,63.2616,55.6065,324.2848,0,U,57493,999,1089,0,.52E-6,0
